SCD 1                   
1 22490U 93009B   16043.22514350  .00000358  00000-0  49177-4 0  9992
2 22490  24.9704  87.1005 0043008 192.0520 223.8815 14.44414297214545
TECHSAT 1B (GO-32)      
1 25397U 98043D   16043.11995190  .00000044  00000-0  38125-4 0  9990
2 25397  98.5530 351.4308 0001587  34.6513 325.4769 14.23582402913926
SCD 2                   
1 25504U 98060A   16043.02984002  .00000314  00000-0  38090-4 0  9990
2 25504  24.9959 288.3871 0017085 231.2932 261.2685 14.43943988913877
LANDSAT 7               
1 25682U 99020A   16043.41285748  .00000270  00000-0  70000-4 0  9996
2 25682  98.2294 115.4399 0001163  84.8444 275.2886 14.57108732895125
DLR-TUBSAT              
1 25757U 99029B   16042.87446951  .00000095  00000-0  35286-4 0  9994
2 25757  98.4378 307.9255 0014696   6.4451 353.6932 14.51317054885209
QUIKSCAT                
1 25789U 99034A   16043.17343913  .00000019  00000-0  25459-4 0  9990
2 25789  98.6080 233.4441 0001662  64.9323 295.2030 14.27237257867144
IKONOS 2                
1 25919U 99051A   16043.54173497  .00001374  00000-0  16095-3 0  9993
2 25919  98.0618 129.0868 0006890 329.3304  30.7507 14.86697222876630
TERRA                   
1 25994U 99068A   16043.42397167  .00000235  00000-0  62194-4 0  9990
2 25994  98.1998 119.4910 0001430 108.3646 251.7716 14.57122779859204
EO-1                    
1 26619U 00075A   16043.42270534  .00001472  00000-0  28812-3 0  9995
2 26619  97.8972  88.3369 0009041 214.4699 145.5915 14.64206074811716
EROS A1                 
1 26631U 00079A   16043.47965370  .00103251  00000-0  11494-2 0  9992
2 26631  97.5422 149.6581 0005212 252.9206 172.0476 15.62501668843731
BADR-B                  
1 27003U 01056C   16042.98372240 -.00000020  00000-0  26035-4 0  9995
2 27003  99.2737 192.9156 0020451 169.7563 190.4004 13.70212979708838
MAROC-TUBSAT            
1 27004U 01056D   16043.19975429 -.00000029  00000-0  15370-4 0  9997
2 27004  99.2792 192.5542 0020023 171.2361 261.7807 13.70112030708812
SPOT 5                  
1 27421U 02021A   16043.50820399  .00000244  00000-0  65638-4 0  9993
2 27421  98.4756  98.3592 0136129  29.7247 331.1597 14.51760598714474
AQUA                    
1 27424U 02022A   16042.83645626  .00000484  00000-0  11758-3 0  9999
2 27424  98.2217 345.2440 0001065  95.0551 324.6455 14.57083396732725
IRS-P6 (RESOURCESAT-1)  
1 28051U 03046A   16043.43887375 -.00000289  00000-0 -11206-3 0  9992
2 28051  98.6701 122.9303 0002981 324.9628  35.1374 14.21641651639555
TANSUO 1 (TS 1)         
1 28220U 04012A   16042.88626214  .00003003  00000-0  25685-3 0  9996
2 28220  97.6312   1.2760 0009945   7.1133 353.0229 14.98322756642836
FORMOSAT-2 (ROCSAT 2)   
1 28254U 04018A   16043.43746889  .00000106  00000-0  10000-3 0  9998
2 28254  98.9576 109.3519 0002707  94.9541  32.5359 14.00763040599895
AURA                    
1 28376U 04026A   16042.83096698  .00000503  00000-0  12170-3 0  9992
2 28376  98.2219 347.3919 0001389  78.0789 282.0565 14.57106814615765
IRS-P5 (CARTOSAT-1)     
1 28649U 05017A   16043.44139417 -.00001183  00000-0 -13779-3 0  9994
2 28649  97.9117 118.0294 0001868 170.2112 189.9182 14.83411250583224
SINAH 1                 
1 28893U 05043D   16043.17555515  .00000430  00000-0  95812-4 0  9996
2 28893  97.8265 220.3156 0014008 261.2154 153.3041 14.61320585548742
EROS B                  
1 29079U 06014A   16043.52951351  .00009250  00000-0  43983-3 0  9999
2 29079  97.4812 163.1882 0007625 311.3299 179.4172 15.19391514543492
RESURS-DK 1             
1 29228U 06021A   16043.56276663  .00000814  00000-0  69781-4 0  9995
2 29228  69.9367 266.0267 0004290 330.2760  63.6368 15.01771082534433
ARIRANG-2 (KOMPSAT-2)   
1 29268U 06031A   16043.39322411  .00000306  00000-0  70060-4 0  9992
2 29268  98.1440 304.8681 0019372 103.5470 256.7876 14.62094707509271
LAPAN-TUBSAT            
1 29709U 07001A   16043.40544849  .00000344  00000-0  49756-4 0  9993
2 29709  97.6480  32.3324 0011353 260.2838  99.7110 14.81908700491292
CARTOSAT-2 (IRS-P7)     
1 29710U 07001B   16043.44635189  .00000194  00000-0  33618-4 0  9990
2 29710  97.9930 103.8477 0000182 351.8396   8.2813 14.78629834490674
HAIYANG-1B              
1 31113U 07010A   16043.42198975  .00003463  00000-0  13558-2 0  9996
2 31113  98.6340  98.5912 0011697 171.6175 188.5274 14.30078894461322
COSMO-SKYMED 1          
1 31598U 07023A   16043.44109080  .00000121  00000-0  21699-4 0  9993
2 31598  97.8785 228.8177 0001405  83.1236 277.0129 14.82156723469758
TERRASAR-X              
1 31698U 07026A   16043.12677969 -.00000473  00000-0 -19347-4 0  9997
2 31698  97.4458  51.7826 0001764  69.9318 332.1806 15.19148355480321
WORLDVIEW-1 (WV-1)      
1 32060U 07041A   16043.57830012  .00005139  00000-0  21097-3 0  9993
2 32060  97.8653 155.3530 0002059 143.2805 274.0546 15.24702249467519
YAOGAN 3                
1 32289U 07055A   16043.37887525  .00000618  00000-0  87296-4 0  9991
2 32289  97.9797  41.1306 0001861  87.6256 272.5168 14.80666346446109
COSMO-SKYMED 2          
1 32376U 07059A   16043.40731962  .00000319  00000-0  46569-4 0  9995
2 32376  97.8777 228.7841 0001371  85.1425 274.9957 14.82153059442491
RADARSAT-2              
1 32382U 07061A   16043.40398822  .00000077  00000-0  46742-4 0  9993
2 32382  98.5771  52.1483 0001137  89.0062  16.6214 14.29983663426156
CARTOSAT-2A             
1 32783U 08021A   16043.42386740  .00000571  00000-0  84996-4 0  9995
2 32783  97.9932 103.8351 0014465 105.9035 254.3772 14.78639609420614
IMS-1                   
1 32786U 08021D   16043.39910603  .00001215  00000-0  15123-3 0  9996
2 32786  97.6326  73.6142 0013128  32.5345 327.6688 14.84161739421259
JASON 2 (OSTM)          
1 33105U 08032A   16043.49450025 -.00000056  00000-0  21016-4 0  9994
2 33105  66.0412  60.9766 0008043 272.8590 253.7262 12.80929366357744
RAPIDEYE 2              
1 33312U 08040A   16043.40794685  .00000411  00000-0  61107-4 0  9996
2 33312  97.8587 130.0707 0012798 140.7201 219.4953 14.79985136402785
RAPIDEYE 5              
1 33313U 08040B   16043.43295751  .00000347  00000-0  52601-4 0  9997
2 33313  97.8467 128.0442 0017622  24.7573 335.4485 14.79989939402739
RAPIDEYE 1              
1 33314U 08040C   16043.42066123  .00000430  00000-0  63444-4 0  9996
2 33314  97.8549 129.7432 0024419 155.7152 204.5223 14.79989535402770
RAPIDEYE 3              
1 33315U 08040D   16043.52613839  .00000374  00000-0  56130-4 0  9991
2 33315  97.8444 127.8067 0013681  93.6189 266.6594 14.79987235402750
RAPIDEYE 4              
1 33316U 08040E   16043.44475028  .00000346  00000-0  52554-4 0  9994
2 33316  97.8420 127.3064 0012800  45.3881 314.8375 14.79984641402731
HUANJING 1A (HJ-1A)     
1 33320U 08041A   16043.38466371  .00000676  00000-0  10402-3 0  9995
2 33320  97.9999 108.5166 0026691 163.9446 196.2615 14.76492917400351
HUANJING 1B (HJ-1B)     
1 33321U 08041B   16043.41300632  .00000700  00000-0  10694-3 0  9998
2 33321  98.0039 109.4310 0034873 180.7838 179.3328 14.76546189400346
GEOEYE 1                
1 33331U 08042A   16043.50871379  .00000269  00000-0  59975-4 0  9997
2 33331  98.0832 119.6701 0009182  16.1094 344.0401 14.64295287397307
THEOS                   
1 33396U 08049A   16043.47170407 -.00000037  00000-0  31740-5 0  9990
2 33396  98.7386 112.3923 0000998 103.4082 312.5678 14.19993323381831
COSMO-SKYMED 3          
1 33412U 08054A   16043.46218113  .00000015  00000-0  83738-5 0  9990
2 33412  97.8785 228.8375 0001250  89.0043 271.1330 14.82160464394960
YAOGAN 4                
1 33446U 08061A   16043.38159246  .00000445  00000-0  70980-4 0  9998
2 33446  97.5959  63.7107 0018099  99.8939 260.4313 14.76240286387607
GOSAT (IBUKI)           
1 33492U 09002A   16043.38407204 -.00000154  00000-0 -18738-4 0  9997
2 33492  98.0877 154.1432 0001502  77.0192 283.1175 14.67537482377849
YAOGAN 6                
1 34839U 09021A   16043.52444465  .00002955  00000-0  12211-3 0  9998
2 34839  97.2141 108.0381 0028000 258.8118 212.5997 15.24412112377800
DEIMOS-1                
1 35681U 09041A   16043.42044087  .00000379  00000-0  68952-4 0  9993
2 35681  98.0066 299.2974 0002887  89.7925 270.3596 14.71523935350966
DUBAISAT-1              
1 35682U 09041B   16043.42619498  .00000363  00000-0  70820-4 0  9998
2 35682  97.8671 278.6688 0010473 283.0645  76.9394 14.68396015350180
OCEANSAT 2              
1 35931U 09051A   16043.33641310  .00000374  00000-0  10587-3 0  9999
2 35931  98.2642 137.9848 0001046 244.7123 115.3964 14.50874432338289
WORLDVIEW-2 (WV-2)      
1 35946U 09055A   16043.44588075  .00000106  00000-0  49521-4 0  9993
2 35946  98.4425 118.0580 0001899  88.9158 271.2249 14.37707054332991
SMOS                    
1 36036U 09059A   16043.16447519  .00000210  00000-0  80778-4 0  9999
2 36036  98.4435 231.8484 0000972  88.2465 271.8835 14.39760545329950
YAOGAN 7                
1 36110U 09069A   16043.38766481  .00000269  00000-0  47433-4 0  9994
2 36110  98.1451 190.7811 0023045 241.1338 118.7569 14.75251073332521
TANDEM-X                
1 36605U 10030A   16042.86364605 -.00001376  00000-0 -62341-4 0  9994
2 36605  97.4448  51.5232 0001488  97.0497 306.9165 15.19145562313021
CARTOSAT 2B             
1 36795U 10035A   16043.39365827  .00000382  00000-0  59224-4 0  9995
2 36795  97.9923 103.7979 0014640 170.9433 189.2050 14.78661156301654
YAOGAN 10               
1 36834U 10038A   16043.40381583  .00000374  00000-0  55481-4 0  9993
2 36834  97.9049  39.9960 0001893  83.0967 277.0465 14.80649006297854
COSMO-SKYMED 4          
1 37216U 10060A   16043.42421379  .00000301  00000-0  44335-4 0  9999
2 37216  97.8789 228.7980 0001309  75.3199 284.8170 14.82157252285048
SAC-D                   
1 37673U 11024A   16043.53598615  .00000576  00000-0  98647-4 0  9996
2 37673  98.0120  52.0400 0001284  56.0162  55.4671 14.72443207251307
